[{"OBJECT_NAME":"STARLINK-35011","OBJECT_ID":"2025-235AA","EPOCH":"2026-03-09T19:29:51.230400","MEAN_MOTION":15.30201757,"ECCENTRICITY":0.00010448,"INCLINATION":53.1598,"RA_OF_ASC_NODE":244.4566,"ARG_OF_PERICENTER":64.9413,"MEAN_ANOMALY":295.1696,"EPHEMERIS_TYPE":0,"CLASSIFICATION_TYPE":"U","NORAD_CAT_ID":66082,"ELEMENT_SET_NO":999,"REV_AT_EPOCH":2294,"BSTAR":0.0010956229,"MEAN_MOTION_DOT":0.00032233,"MEAN_MOTION_DDOT":0},{"OBJECT_NAME":"KUIPER-00252","OBJECT_ID":"2025-301AA","EPOCH":"2026-03-09T22:00:01.999584","MEAN_MOTION":15.32961042,"ECCENTRICITY":0.00108625,"INCLINATION":51.8682,"RA_OF_ASC_NODE":64.6463,"ARG_OF_PERICENTER":55.9089,"MEAN_ANOMALY":330.8749,"EPHEMERIS_TYPE":0,"CLASSIFICATION_TYPE":"U","NORAD_CAT_ID":67157,"ELEMENT_SET_NO":999,"REV_AT_EPOCH":542,"BSTAR":-0.017504489,"MEAN_MOTION_DOT":-0.00529484,"MEAN_MOTION_DDOT":0}]
